[{"OBJECT_NAME":"STARLINK-1506","OBJECT_ID":"2020-038T","EPOCH":"2026-03-09T15:50:48.887520","MEAN_MOTION":15.26134655,"ECCENTRICITY":0.00025141,"INCLINATION":53.0733,"RA_OF_ASC_NODE":202.5028,"ARG_OF_PERICENTER":227.7836,"MEAN_ANOMALY":132.2949,"EPHEMERIS_TYPE":0,"CLASSIFICATION_TYPE":"U","NORAD_CAT_ID":45747,"ELEMENT_SET_NO":999,"REV_AT_EPOCH":31668,"BSTAR":0.0009799682,"MEAN_MOTION_DOT":0.0002538,"MEAN_MOTION_DDOT":0},{"OBJECT_NAME":"STARLINK-31942","OBJECT_ID":"2024-100Q","EPOCH":"2026-03-08T05:14:21.132096","MEAN_MOTION":15.27567948,"ECCENTRICITY":9.929e-5,"INCLINATION":42.9999,"RA_OF_ASC_NODE":133.5544,"ARG_OF_PERICENTER":280.9043,"MEAN_ANOMALY":79.1696,"EPHEMERIS_TYPE":0,"CLASSIFICATION_TYPE":"U","NORAD_CAT_ID":59899,"ELEMENT_SET_NO":999,"REV_AT_EPOCH":10092,"BSTAR":-2.3153262e-5,"MEAN_MOTION_DOT":-8.99e-6,"MEAN_MOTION_DDOT":0}]
