STARLINK-1506           
1 45747U 20038T   26068.66028804  .00025380  00000+0  97997-3 0  9997
2 45747  53.0733 202.5028 0002514 227.7836 132.2949 15.26134655316688
STARLINK-31942          
1 59899U 24100Q   26067.21830014 -.00000899  00000+0 -23153-4 0  9992
2 59899  42.9999 133.5544 0000992 280.9043  79.1696 15.27567948100929
